0 CZ-4C DEB
1 35249U 07055D   13281.26956486  .00002508  00000-0  71377-3 0  4720
2 35249 097.7955 088.3754 0264723 237.2362 250.1092 14.27582466305069
0 CZ-4C DEB
1 35249U 07055D   13283.42350670  .00002871  00000-0  81477-3 0  4739
2 35249 097.7955 090.3010 0264761 230.7804 159.9124 14.27603063305360
0 CZ-4C DEB
1 35249U 07055D   13285.74378771  .00003474  00000-0  98285-3 0  4744
2 35249 097.7952 092.3746 0264726 223.8254 204.7379 14.27612485305693
0 CZ-4C DEB
1 35249U 07055D   13287.70503624  .00004856  00000-0  13677-2 0  4756
2 35249 097.7953 094.1281 0264770 217.9191 204.4739 14.27627982305977
0 CZ-4C DEB
1 35249U 07055D   13291.29143756  .00004710  00000-0  13257-2 0  4765
2 35249 097.7955 097.3347 0264869 207.1823 276.8502 14.27659448306489
0 CZ-4C DEB
1 35249U 07055D   13294.30477119  .00006537  00000-0  18333-2 0  4773
2 35249 097.7963 100.0288 0264852 198.1631 284.2780 14.27687054306915
